LEMUR-2-ALISIA          
1 62706U 25009DB  26171.19852877  .00005792  00000+0  43716-3 0  9997
2 62706  97.6938 253.3480 0002291 189.4995 170.6188 15.02801430100612
LEMUR-2-ROUNDTRIPPER    
1 62711U 25009DG  26171.22110775  .00006985  00000+0  51191-3 0  9992
2 62711  97.7251 253.8964 0005630 122.3264 237.8507 15.03833420 78085
LEMUR-2-MYNAMEISJEFF    
1 62712U 25009DH  26171.21950605  .00006525  00000+0  47856-3 0  9999
2 62712  97.7297 254.2779 0003882 143.6078 216.5412 15.03837013 78082
LEMUR-2-LEIA-PHILIP     
1 63246U 25052AN  26171.21058350  .00000478  00000+0  46166-4 0  9991
2 63246  97.6833  63.1110 0002895 200.1760 159.9348 14.97323681 69122
LEMUR-2-LIA-MARTIN      
1 63248U 25052AQ  26171.28146044  .00002948  00000+0  25573-3 0  9990
2 63248  97.6883  63.6600 0003091 153.3498 206.7884 14.97820653 69143
LEMUR-2-DELOITTE-1      
1 63259U 25052BB  26171.25825890  .00003338  00000+0  29039-3 0  9997
2 63259  97.6924  63.9659 0003522  90.6885 269.4741 14.97624737 69154
LEMUR-2-EMERSONROSE     
1 63261U 25052BD  26171.23041565  .00002901  00000+0  24367-3 0  9991
2 63261  97.6876  64.5026 0001746  71.3518 288.7894 14.99096022 69192
LEMUR-2-MARACHE-FRAN    
1 63262U 25052BE  26171.20365968  .00004017  00000+0  32663-3 0  9993
2 63262  97.6933  64.7998 0005047  11.9319 348.2023 15.00125665 69212
LEMUR-2-THEFALCONER     
1 63264U 25052BG  26171.21825671  .00002487  00000+0  21888-3 0  9994
2 63264  97.6851  63.5439 0002269  23.5297 336.6028 14.97402581 69145
LEMUR-2-UNTITLED-SC     
1 63351U 25061A   26171.19608361  .00002948  00000+0  16795-3 0  9996
2 63351  97.5639 146.5358 0016996 253.1143 106.8225 15.13494116 68048
LEMUR-2-ESPERANZA       
1 63352U 25061B   26171.17303478  .00002392  00000+0  13665-3 0  9992
2 63352  97.5646 146.6070 0016562 252.3879 107.5544 15.13584951 68044
LEMUR-2-KREMPEL-BRO2    
1 63353U 25061C   26170.93478705  .00003030  00000+0  16995-3 0  9991
2 63353  97.5692 146.9073 0017610 245.0479 114.8923 15.14022031 68029
LEMUR-2-THERMORAPTOR    
1 63354U 25061D   26171.18106009  .00002615  00000+0  14688-3 0  9990
2 63354  97.5697 147.2284 0017300 242.9467 116.9999 15.14102766 68066
LEMUR-2-NEUROSPICY      
1 63355U 25061E   26170.88817734  .00003184  00000+0  17757-3 0  9993
2 63355  97.5626 146.5613 0015111 247.7188 112.2441 15.14216694 68021
LEMUR-2-TILLINFINITY    
1 63356U 25061F   26171.18662554  .00002681  00000+0  14760-3 0  9998
2 63356  97.5607 147.1504 0016542 233.7512 126.2192 15.14803707 68094
LEMUR-2-KREMPEL-BRO1    
1 63357U 25061G   26170.96228567  .00002950  00000+0  16292-3 0  9997
2 63357  97.5612 146.8426 0017136 236.0448 123.9155 15.14607686 68051
LEMUR-2-LANGER2SPACE    
1 63358U 25061H   26171.18758004  .00002716  00000+0  15167-3 0  9997
2 63358  97.5616 146.8793 0015022 244.7926 115.1749 15.14306191 68073
LEMUR-2-BALTO           
1 63395U 25052BH  26171.25507938  .00004997  00000+0  40516-3 0  9993
2 63395  97.6900  64.8272 0006877  50.0127 310.1699 15.00116092 69224
LEMUR-2-KRISH           
1 64561U 25135AK  26171.28442341  .00003654  00000+0  32897-3 0  9992
2 64561  97.7753 286.1395 0001617  96.8022 263.3383 14.96233814 54387
LEMUR-2-HUBBLE-4        
1 64565U 25135AP  26171.28592368  .00000980  00000+0  99230-4 0  9995
2 64565  97.7702 285.1541 0000888 282.2491  77.8629 14.93205398 54336
LEMUR-2-SEJONG-2        
1 64586U 25135BL  26171.31339696  .00003323  00000+0  29595-3 0  9995
2 64586  97.7685 286.3126 0003523 325.5938  34.5055 14.96714959 54410
LEMUR-2-HUBBLE-5        
1 64840U 25135BT  26171.30501707  .00000825  00000+0  82445-4 0  9999
2 64840  97.7721 285.8121 0004813 342.4019  17.7033 14.94141837 54375
LEMUR-2-KARENDARRELL    
1 64841U 25135BU  26170.85298923  .00006404  00000+0  51721-3 0  9993
2 64841  97.7681 287.0562 0009892 191.8054 168.2939 15.00141778 54415
LEMUR-2-LUCILLE-ROSE    
1 65403U 25135BV  26171.22681999  .00005244  00000+0  42394-3 0  9996
2 65403  97.7764 287.4529 0011474 271.3735  88.6173 15.00184115 49093
LEMUR-2-AFFIE-WAUWIE    
1 66295U 25248C   26171.19549890  .00016094  00000+0  60139-3 0  9992
2 66295  45.3922  98.6890 0007304 104.5584 255.6116 15.27237753 35057
LEMUR-2-DEANANDMAEVE    
1 66678U 25276N   26171.14589966  .00005584  00000+0  26412-3 0  9999
2 66678  97.4206 244.5725 0005411   4.6019 355.5265 15.19763165 30865
LEMUR-2-STAS-GORBUK     
1 66686U 25276W   26170.76594931  .00004501  00000+0  21576-3 0  9997
2 66686  97.4242 244.2537 0004851   6.8934 353.2367 15.19403010 30801
LEMUR-2-TEODOR          
1 66768U 25276DG  26171.20740216  .00004775  00000+0  21795-3 0  9993
2 66768  97.4147 244.9279 0002227 113.6686 246.4784 15.21077360 30907
LEMUR-2-LAILA           
1 66776U 25276DQ  26171.18087797  .00004519  00000+0  20513-3 0  9990
2 66776  97.4169 245.0244 0002387 131.7592 228.3849 15.21298841 30908
