OBJECT_NAME,OBJECT_ID,EPOCH,MEAN_MOTION,ECCENTRICITY,INCLINATION,RA_OF_ASC_NODE,ARG_OF_PERICENTER,MEAN_ANOMALY,EPHEMERIS_TYPE,CLASSIFICATION_TYPE,NORAD_CAT_ID,ELEMENT_SET_NO,REV_AT_EPOCH,BSTAR,MEAN_MOTION_DOT,MEAN_MOTION_DDOT
LEMUR-2-ALISIA,2025-009DB,2026-06-20T04:45:52.885728,15.02801430,.00022915,97.6938,253.3480,189.4995,170.6188,0,U,62706,999,10061,.43716332E-3,.5792E-4,0
LEMUR-2-ROUNDTRIPPER,2025-009DG,2026-06-20T05:18:23.709600,15.03833420,.00056302,97.7251,253.8964,122.3264,237.8507,0,U,62711,999,7808,.51190986E-3,.6985E-4,0
LEMUR-2-MYNAMEISJEFF,2025-009DH,2026-06-20T05:16:05.322720,15.03837013,.00038827,97.7297,254.2779,143.6078,216.5412,0,U,62712,999,7808,.47856492E-3,.6525E-4,0
LEMUR-2-LEIA-PHILIP,2025-052AN,2026-06-20T05:03:14.414400,14.97323681,.00028953,97.6833,63.1110,200.1760,159.9348,0,U,63246,999,6912,.46165648E-4,.478E-5,0
LEMUR-2-LIA-MARTIN,2025-052AQ,2026-06-20T06:45:18.182016,14.97820653,.00030914,97.6883,63.6600,153.3498,206.7884,0,U,63248,999,6914,.25572829E-3,.2948E-4,0
LEMUR-2-DELOITTE-1,2025-052BB,2026-06-20T06:11:53.568960,14.97624737,.00035223,97.6924,63.9659,90.6885,269.4741,0,U,63259,999,6915,.29038865E-3,.3338E-4,0
LEMUR-2-EMERSONROSE,2025-052BD,2026-06-20T05:31:47.912160,14.99096022,.00017465,97.6876,64.5026,71.3518,288.7894,0,U,63261,999,6919,.24367082E-3,.2901E-4,0
LEMUR-2-MARACHE-FRAN,2025-052BE,2026-06-20T04:53:16.196352,15.00125665,.00050473,97.6933,64.7998,11.9319,348.2023,0,U,63262,999,6921,.32663252E-3,.4017E-4,0
LEMUR-2-THEFALCONER,2025-052BG,2026-06-20T05:14:17.379744,14.97402581,.00022692,97.6851,63.5439,23.5297,336.6028,0,U,63264,999,6914,.21887589E-3,.2487E-4,0
LEMUR-2-UNTITLED-SC,2025-061A,2026-06-20T04:42:21.623904,15.13494116,.00169964,97.5639,146.5358,253.1143,106.8225,0,U,63351,999,6804,.16795132E-3,.2948E-4,0
LEMUR-2-ESPERANZA,2025-061B,2026-06-20T04:09:10.204992,15.13584951,.00165627,97.5646,146.6070,252.3879,107.5544,0,U,63352,999,6804,.13665248E-3,.2392E-4,0
LEMUR-2-KREMPEL-BRO2,2025-061C,2026-06-19T22:26:05.601120,15.14022031,.00176105,97.5692,146.9073,245.0479,114.8923,0,U,63353,999,6802,.16995224E-3,.303E-4,0
LEMUR-2-THERMORAPTOR,2025-061D,2026-06-20T04:20:43.591776,15.14102766,.00173005,97.5697,147.2284,242.9467,116.9999,0,U,63354,999,6806,.14688163E-3,.2615E-4,0
LEMUR-2-NEUROSPICY,2025-061E,2026-06-19T21:18:58.522176,15.14216694,.00151117,97.5626,146.5613,247.7188,112.2441,0,U,63355,999,6802,.17756892E-3,.3184E-4,0
LEMUR-2-TILLINFINITY,2025-061F,2026-06-20T04:28:44.446656,15.14803707,.00165422,97.5607,147.1504,233.7512,126.2192,0,U,63356,999,6809,.14759995E-3,.2681E-4,0
LEMUR-2-KREMPEL-BRO1,2025-061G,2026-06-19T23:05:41.481888,15.14607686,.00171367,97.5612,146.8426,236.0448,123.9155,0,U,63357,999,6805,.16291506E-3,.295E-4,0
LEMUR-2-LANGER2SPACE,2025-061H,2026-06-20T04:30:06.915456,15.14306191,.00150226,97.5616,146.8793,244.7926,115.1749,0,U,63358,999,6807,.15166957E-3,.2716E-4,0
LEMUR-2-BALTO,2025-052BH,2026-06-20T06:07:18.858432,15.00116092,.00068777,97.6900,64.8272,50.0127,310.1699,0,U,63395,999,6922,.40515596E-3,.4997E-4,0
LEMUR-2-KRISH,2025-135AK,2026-06-20T06:49:34.182624,14.96233814,.00016175,97.7753,286.1395,96.8022,263.3383,0,U,64561,999,5438,.32897185E-3,.3654E-4,0
LEMUR-2-HUBBLE-4,2025-135AP,2026-06-20T06:51:43.805952,14.93205398,.00008883,97.7702,285.1541,282.2491,77.8629,0,U,64565,999,5433,.99229946E-4,.98E-5,0
LEMUR-2-SEJONG-2,2025-135BL,2026-06-20T07:31:17.497344,14.96714959,.00035237,97.7685,286.3126,325.5938,34.5055,0,U,64586,999,5441,.29595182E-3,.3323E-4,0
LEMUR-2-HUBBLE-5,2025-135BT,2026-06-20T07:19:13.474848,14.94141837,.00048137,97.7721,285.8121,342.4019,17.7033,0,U,64840,999,5437,.82445477E-4,.825E-5,0
LEMUR-2-KARENDARRELL,2025-135BU,2026-06-19T20:28:18.269472,15.00141778,.00098927,97.7681,287.0562,191.8054,168.2939,0,U,64841,999,5441,.51720904E-3,.6404E-4,0
LEMUR-2-LUCILLE-ROSE,2025-135BV,2026-06-20T05:26:37.247136,15.00184115,.00114741,97.7764,287.4529,271.3735,88.6173,0,U,65403,999,4909,.42394006E-3,.5244E-4,0
LEMUR-2-AFFIE-WAUWIE,2025-248C,2026-06-20T04:41:31.104960,15.27237753,.00073049,45.3922,98.6890,104.5584,255.6116,0,U,66295,999,3505,.60138846E-3,.16094E-3,0
LEMUR-2-DEANANDMAEVE,2025-276N,2026-06-20T03:30:05.730624,15.19763165,.00054115,97.4206,244.5725,4.6019,355.5265,0,U,66678,999,3086,.26411599E-3,.5584E-4,0
LEMUR-2-STAS-GORBUK,2025-276W,2026-06-19T18:22:58.020384,15.19403010,.0004851,97.4242,244.2537,6.8934,353.2367,0,U,66686,999,3080,.21576279E-3,.4501E-4,0
LEMUR-2-TEODOR,2025-276DG,2026-06-20T04:58:39.546624,15.21077360,.00022273,97.4147,244.9279,113.6686,246.4784,0,U,66768,999,3090,.21795069E-3,.4775E-4,0
LEMUR-2-LAILA,2025-276DQ,2026-06-20T04:20:27.856608,15.21298841,.00023875,97.4169,245.0244,131.7592,228.3849,0,U,66776,999,3090,.20513265E-3,.4519E-4,0
